[{"OBJECT_NAME":"OBJECT D","OBJECT_ID":"2024-085D","EPOCH":"2026-03-09T22:53:13.410816","MEAN_MOTION":15.33413141,"ECCENTRICITY":0.00152451,"INCLINATION":97.3312,"RA_OF_ASC_NODE":145.3953,"ARG_OF_PERICENTER":54.9672,"MEAN_ANOMALY":305.2998,"EPHEMERIS_TYPE":0,"CLASSIFICATION_TYPE":"U","NORAD_CAT_ID":59680,"ELEMENT_SET_NO":999,"REV_AT_EPOCH":10244,"BSTAR":0.00049264705,"MEAN_MOTION_DOT":0.00015903,"MEAN_MOTION_DDOT":0},{"OBJECT_NAME":"STARLINK-34647","OBJECT_ID":"2025-157A","EPOCH":"2026-03-09T23:23:10.227552","MEAN_MOTION":15.30218639,"ECCENTRICITY":0.00012613,"INCLINATION":53.1599,"RA_OF_ASC_NODE":344.6184,"ARG_OF_PERICENTER":67.4333,"MEAN_ANOMALY":292.6802,"EPHEMERIS_TYPE":0,"CLASSIFICATION_TYPE":"U","NORAD_CAT_ID":64904,"ELEMENT_SET_NO":999,"REV_AT_EPOCH":3615,"BSTAR":0.0014253055,"MEAN_MOTION_DOT":0.00042118,"MEAN_MOTION_DDOT":0}]
